GLOBALSTAR M057         
1 25943U 99058A   24188.83306937 -.00000042  00000+0  46444-3 0  9997
2 25943  51.9970 248.2892 0001890  29.1495 330.9460 12.24788901124610
GLOBALSTAR M059         
1 25944U 99058B   24188.89556517 -.00000018  00000+0  84664-3 0  9994
2 25944  52.0028  61.2849 0001046  31.5268 342.3601 11.99964244532591
GLOBALSTAR M056         
1 25945U 99058C   24188.94586837 -.00000126  00000+0 -45466-3 0  9997
2 25945  51.9976  71.9732 0000351 140.9454 232.5028 12.04775185121016
GLOBALSTAR M031         
1 25946U 99058D   24188.78996767 -.00000104  00000+0 -13595-3 0  9991
2 25946  51.9980 345.4021 0001618 165.7171 332.7555 12.16010961122522
GLOBALSTAR M039         
1 25961U 99062A   24188.85626419 -.00000049  00000+0  30330-3 0  9998
2 25961  51.9829 240.5030 0002459 296.7040  63.3575 12.62296101136606
GLOBALSTAR M034         
1 25962U 99062B   24188.70999985 -.00000074  00000+0  11871-3 0  9991
2 25962  51.9836 189.4154 0013658 109.3808  62.5742 11.79428747 97622
GLOBALSTAR M029         
1 25963U 99062C   24188.74695366 -.00000067  00000+0  23991-3 0  9990
2 25963  51.9820 310.0218 0003182 151.4174   2.0916 11.99879840127659
GLOBALSTAR M061         
1 25964U 99062D   24188.94872736 -.00000064  00000+0  27333-3 0  9992
2 25964  51.9814   8.2538 0006589  42.4609 125.4675 11.76762432 80530
